stk.v.4.3 

BEGIN Ephemeris 
 
NumberOfEphemerisPoints		146 
ScenarioEpoch	    2 Jan 2020 12:22:42.102931738 
InterpolationMethod		Lagrange 
InterpolationOrder		5 
CentralBody				Earth 
CoordinateSystem			TEME 
CoordinateSystemEpoch	  2 Jan 2020 12:22:42.102931738 
DistanceUnit			Kilometers 
 
EphemerisTimePosVel 
 
       0.00000000    7113.82625760    -798.97198973       0.03801661  0.043151500  0.466922801  7.449051918
 END Ephemeris 
